{
  "type": "FeatureCollection",
  "features": [
    {
      "type": "Feature",
      "properties": {
        "norad_id": 66619,
        "name": "STARLINK-35951",
        "group": "last-30-days",
        "lat": 37.46824695476741,
        "lon": -136.12701166899518,
        "alt_km": 408.08299082889243,
        "timestamp": "2025-12-12T09:49:07.481947+00:00",
        "meta_object_name": "STARLINK-35951",
        "meta_object_id": "2025-271C",
        "meta_epoch": "2025-12-12T04:00:01.998720",
        "meta_mean_motion": 15.5222778,
        "meta_eccentricity": 6.55e-05,
        "meta_inclination": 53.1595,
        "meta_ra_of_asc_node": 189.9628,
        "meta_arg_of_pericenter": 90.3044,
        "meta_mean_anomaly": 44.245,
        "meta_ephemeris_type": 0,
        "meta_classification_type": "U",
        "meta_norad_cat_id": 66619,
        "meta_element_set_no": 999,
        "meta_rev_at_epoch": 415,
        "meta_bstar": -0.034015,
        "meta_mean_motion_dot": -0.01855945,
        "meta_mean_motion_ddot": 0,
        "tle_line1": "1 66619U 25271C   25346.16668980 -.01855945  00000+0 -34015-1 0  9991",
        "tle_line2": "2 66619  53.1595 189.9628 0000655  90.3044  44.2450 15.52227780  4155"
      },
      "geometry": {
        "type": "Point",
        "coordinates": [
          -136.12701166899518,
          37.46824695476741
        ]
      }
    },
    {
      "type": "Feature",
      "properties": {
        "norad_id": 66620,
        "name": "STARLINK-35936",
        "group": "last-30-days",
        "lat": 33.580643227548606,
        "lon": -141.33563222691004,
        "alt_km": 408.6967375857248,
        "timestamp": "2025-12-12T09:49:07.481958+00:00",
        "meta_object_name": "STARLINK-35936",
        "meta_object_id": "2025-271D",
        "meta_epoch": "2025-12-12T04:00:01.998720",
        "meta_mean_motion": 15.52244894,
        "meta_eccentricity": 7.1e-05,
        "meta_inclination": 53.1595,
        "meta_ra_of_asc_node": 189.9763,
        "meta_arg_of_pericenter": 88.9866,
        "meta_mean_anomaly": 39.8057,
        "meta_ephemeris_type": 0,
        "meta_classification_type": "U",
        "meta_norad_cat_id": 66620,
        "meta_element_set_no": 999,
        "meta_rev_at_epoch": 415,
        "meta_bstar": -0.03461,
        "meta_mean_motion_dot": -0.01885602,
        "meta_mean_motion_ddot": 0,
        "tle_line1": "1 66620U 25271D   25346.16668980 -.01885602  00000+0 -34610-1 0  9997",
        "tle_line2": "2 66620  53.1595 189.9763 0000710  88.9866  39.8057 15.52244894  4152"
      },
      "geometry": {
        "type": "Point",
        "coordinates": [
          -141.33563222691004,
          33.580643227548606
        ]
      }
    },
    {
      "type": "Feature",
      "properties": {
        "norad_id": 66621,
        "name": "STARLINK-35847",
        "group": "last-30-days",
        "lat": 52.25457808959908,
        "lon": -66.87644293055962,
        "alt_km": 405.4680520456286,
        "timestamp": "2025-12-12T09:49:07.481968+00:00",
        "meta_object_name": "STARLINK-35847",
        "meta_object_id": "2025-271E",
        "meta_epoch": "2025-12-12T04:00:01.998720",
        "meta_mean_motion": 15.52242172,
        "meta_eccentricity": 0.0001245,
        "meta_inclination": 53.1593,
        "meta_ra_of_asc_node": 189.8597,
        "meta_arg_of_pericenter": 66.5504,
        "meta_mean_anomaly": 117.188,
        "meta_ephemeris_type": 0,
        "meta_classification_type": "U",
        "meta_norad_cat_id": 66621,
        "meta_element_set_no": 999,
        "meta_rev_at_epoch": 415,
        "meta_bstar": -0.034566,
        "meta_mean_motion_dot": -0.0188364,
        "meta_mean_motion_ddot": 0,
        "tle_line1": "1 66621U 25271E   25346.16668980 -.01883640  00000+0 -34566-1 0  9998",
        "tle_line2": "2 66621  53.1593 189.8597 0001245  66.5504 117.1880 15.52242172  4151"
      },
      "geometry": {
        "type": "Point",
        "coordinates": [
          -66.87644293055962,
          52.25457808959908
        ]
      }
    },
    {
      "type": "Feature",
      "properties": {
        "norad_id": 66622,
        "name": "STARLINK-35950",
        "group": "last-30-days",
        "lat": 38.710434325290485,
        "lon": -134.2709280705231,
        "alt_km": 407.8025504581692,
        "timestamp": "2025-12-12T09:49:07.481978+00:00",
        "meta_object_name": "STARLINK-35950",
        "meta_object_id": "2025-271F",
        "meta_epoch": "2025-12-12T04:00:01.998720",
        "meta_mean_motion": 15.52238444,
        "meta_eccentricity": 7.49e-05,
        "meta_inclination": 53.1594,
        "meta_ra_of_asc_node": 189.96,
        "meta_arg_of_pericenter": 82.7218,
        "meta_mean_anomaly": 53.7397,
        "meta_ephemeris_type": 0,
        "meta_classification_type": "U",
        "meta_norad_cat_id": 66622,
        "meta_element_set_no": 999,
        "meta_rev_at_epoch": 415,
        "meta_bstar": -0.034384,
        "meta_mean_motion_dot": -0.01874382,
        "meta_mean_motion_ddot": 0,
        "tle_line1": "1 66622U 25271F   25346.16668980 -.01874382  00000+0 -34384-1 0  9990",
        "tle_line2": "2 66622  53.1594 189.9600 0000749  82.7218  53.7397 15.52238444  4154"
      },
      "geometry": {
        "type": "Point",
        "coordinates": [
          -134.2709280705231,
          38.710434325290485
        ]
      }
    },
    {
      "type": "Feature",
      "properties": {
        "norad_id": 66623,
        "name": "STARLINK-35920",
        "group": "last-30-days",
        "lat": 41.10163487248502,
        "lon": -130.3630532122978,
        "alt_km": 407.3834846895088,
        "timestamp": "2025-12-12T09:49:07.481989+00:00",
        "meta_object_name": "STARLINK-35920",
        "meta_object_id": "2025-271G",
        "meta_epoch": "2025-12-12T04:00:01.998720",
        "meta_mean_motion": 15.52243334,
        "meta_eccentricity": 8.31e-05,
        "meta_inclination": 53.1596,
        "meta_ra_of_asc_node": 189.9514,
        "meta_arg_of_pericenter": 85.8003,
        "meta_mean_anomaly": 54.4939,
        "meta_ephemeris_type": 0,
        "meta_classification_type": "U",
        "meta_norad_cat_id": 66623,
        "meta_element_set_no": 999,
        "meta_rev_at_epoch": 415,
        "meta_bstar": -0.034593,
        "meta_mean_motion_dot": -0.01884738,
        "meta_mean_motion_ddot": 0,
        "tle_line1": "1 66623U 25271G   25346.16668980 -.01884738  00000+0 -34593-1 0  9999",
        "tle_line2": "2 66623  53.1596 189.9514 0000831  85.8003  54.4939 15.52243334  4153"
      },
      "geometry": {
        "type": "Point",
        "coordinates": [
          -130.3630532122978,
          41.10163487248502
        ]
      }
    },
    {
      "type": "Feature",
      "properties": {
        "norad_id": 66624,
        "name": "STARLINK-35927",
        "group": "last-30-days",
        "lat": 39.92367567162787,
        "lon": -132.34899234296796,
        "alt_km": 407.5067846038646,
        "timestamp": "2025-12-12T09:49:07.481999+00:00",
        "meta_object_name": "STARLINK-35927",
        "meta_object_id": "2025-271H",
        "meta_epoch": "2025-12-12T04:00:01.998720",
        "meta_mean_motion": 15.5224009,
        "meta_eccentricity": 8.27e-05,
        "meta_inclination": 53.1594,
        "meta_ra_of_asc_node": 189.9558,
        "meta_arg_of_pericenter": 69.7159,
        "meta_mean_anomaly": 68.6624,
        "meta_ephemeris_type": 0,
        "meta_classification_type": "U",
        "meta_norad_cat_id": 66624,
        "meta_element_set_no": 999,
        "meta_rev_at_epoch": 415,
        "meta_bstar": -0.034417,
        "meta_mean_motion_dot": -0.01876105,
        "meta_mean_motion_ddot": 0,
        "tle_line1": "1 66624U 25271H   25346.16668980 -.01876105  00000+0 -34417-1 0  9994",
        "tle_line2": "2 66624  53.1594 189.9558 0000827  69.7159  68.6624 15.52240090  4152"
      },
      "geometry": {
        "type": "Point",
        "coordinates": [
          -132.34899234296796,
          39.92367567162787
        ]
      }
    },
    {
      "type": "Feature",
      "properties": {
        "norad_id": 66625,
        "name": "STARLINK-35929",
        "group": "last-30-days",
        "lat": 42.24482023263923,
        "lon": -128.30314906419875,
        "alt_km": 407.22447132947036,
        "timestamp": "2025-12-12T09:49:07.482011+00:00",
        "meta_object_name": "STARLINK-35929",
        "meta_object_id": "2025-271J",
        "meta_epoch": "2025-12-12T04:00:01.998720",
        "meta_mean_motion": 15.52239809,
        "meta_eccentricity": 8.12e-05,
        "meta_inclination": 53.1594,
        "meta_ra_of_asc_node": 189.9473,
        "meta_arg_of_pericenter": 89.9182,
        "meta_mean_anomaly": 52.2936,
        "meta_ephemeris_type": 0,
        "meta_classification_type": "U",
        "meta_norad_cat_id": 66625,
        "meta_element_set_no": 999,
        "meta_rev_at_epoch": 415,
        "meta_bstar": -0.034435,
        "meta_mean_motion_dot": -0.01876926,
        "meta_mean_motion_ddot": 0,
        "tle_line1": "1 66625U 25271J   25346.16668980 -.01876926  00000+0 -34435-1 0  9996",
        "tle_line2": "2 66625  53.1594 189.9473 0000812  89.9182  52.2936 15.52239809  4154"
      },
      "geometry": {
        "type": "Point",
        "coordinates": [
          -128.30314906419875,
          42.24482023263923
        ]
      }
    }
  ]
}